STARLINK-2690
1 28480C 21040BE  21325.12447301  .00006792  00000-0  45509-3 0  3259
2 28480  53.0561  47.6605 0001395  62.3531 351.8200 15.06388013    17
